$$SOE
2460154.500000000, A.D. 2023-Jul-29 00:00:00.0000, -2.673268564716765E+08, 2.847674488209376E+08, -3.823301049392022E+07,
2460161.500000000, A.D. 2023-Aug-05 00:00:00.0000, -2.702846768492460E+08, 2.733365261046160E+08, -3.359588893392648E+07,
2460168.500000000, A.D. 2023-Aug-12 00:00:00.0000, -2.730140822405985E+08, 2.616746638329012E+08, -2.893040503481188E+07,
2460175.500000000, A.D. 2023-Aug-19 00:00:00.0000, -2.755005159879481E+08, 2.497799806434872E+08, -2.423920616797788E+07,
2460182.500000000, A.D. 2023-Aug-26 00:00:00.0000, -2.777284898246962E+08, 2.376510314895245E+08, -1.952530234370768E+07,
2460189.500000000, A.D. 2023-Sep-02 00:00:00.0000, -2.796815348638463E+08, 2.252868971548640E+08, -1.479210837657323E+07,
2460196.500000000, A.D. 2023-Sep-09 00:00:00.0000, -2.813421549024270E+08, 2.126872874871905E+08, -1.004349033283992E+07,
2460203.500000000, A.D. 2023-Sep-16 00:00:00.0000, -2.826917836638978E+08, 1.998526600153725E+08, -5.283816472468391E+06,
2460210.500000000, A.D. 2023-Sep-23 00:00:00.0000, -2.837107478594329E+08, 1.867843560379488E+08, -5.180128042903841E+05,
2460217.500000000, A.D. 2023-Sep-30 00:00:00.0000, -2.843782393163741E+08, 1.734847571897475E+08, 4.248376902722970E+06,
2460224.500000000, A.D. 2023-Oct-07 00:00:00.0000, -2.846723021647936E+08, 1.599574636877235E+08, 9.009127041551664E+06,
2460231.500000000, A.D. 2023-Oct-14 00:00:00.0000, -2.845698385235263E+08, 1.462074924865811E+08, 1.375726213711097E+07,
2460238.500000000, A.D. 2023-Oct-21 00:00:00.0000, -2.840466348857092E+08, 1.322414980964282E+08, 1.848498553397103E+07,
2460245.500000000, A.D. 2023-Oct-28 00:00:00.0000, -2.830774171149397E+08, 1.180680188189316E+08, 2.318360641389932E+07,
2460252.500000000, A.D. 2023-Nov-04 00:00:00.0000, -2.816359429167472E+08, 1.036977471588835E+08, 2.784346708132249E+07,
2460259.500000000, A.D. 2023-Nov-11 00:00:00.0000, -2.796951403248438E+08, 8.914382194872926E+07, 3.245387307340114E+07,
2460266.500000000, A.D. 2023-Nov-18 00:00:00.0000, -2.772273016773749E+08, 7.442213834350446E+07, 3.700302957814218E+07,
2460273.500000000, A.D. 2023-Nov-25 00:00:00.0000, -2.742043434008381E+08, 5.955166940980372E+07, 4.147798869550100E+07,
2460280.500000000, A.D. 2023-Dec-02 00:00:00.0000, -2.705981421448329E+08, 4.455478981281275E+07, 4.586461322353866E+07,
2460287.500000000, A.D. 2023-Dec-09 00:00:00.0000, -2.663809571268713E+08, 2.945758819907880E+07, 5.014756383905838E+07,
2460294.500000000, A.D. 2023-Dec-16 00:00:00.0000, -2.615259465241661E+08, 1.429015050283005E+07, 5.431031766204622E+07,
2460301.500000000, A.D. 2023-Dec-23 00:00:00.0000, -2.560077822930460E+08, -9.132077089188360E+05, 5.833522714051883E+07,
2460308.500000000, A.D. 2023-Dec-30 00:00:00.0000, -2.498033641165803E+08, -1.611378607753912E+07, 6.220362879719212E+07,
2460315.500000000, A.D. 2024-Jan-06 00:00:00.0000, -2.428926259959565E+08, -3.126845506778650E+07, 6.589601078178750E+07,
2460322.500000000, A.D. 2024-Jan-13 00:00:00.0000, -2.352594141574531E+08, -4.632975767802735E+07, 6.939224629959133E+07,
2460329.500000000, A.D. 2024-Jan-20 00:00:00.0000, -2.268924050685971E+08, -6.124618717552398E+07, 7.267189769405171E+07,
2460336.500000000, A.D. 2024-Jan-27 00:00:00.0000, -2.177860227633962E+08, -7.596266874792860E+07, 7.571459159084639E+07,
2460343.500000000, A.D. 2024-Feb-03 00:00:00.0000, -2.079413007617099E+08, -9.042126512060185E+07, 7.850045918091582E+07,
2460350.500000000, A.D. 2024-Feb-10 00:00:00.0000, -1.973666234948826E+08, -1.045621106590384E+08, 8.101062838648383E+07,
2460357.500000000, A.D. 2024-Feb-17 00:00:00.0000, -1.860782777611741E+08, -1.183245583796165E+08, 8.322774680603579E+07,
2460364.500000000, A.D. 2024-Feb-24 00:00:00.0000, -1.741007478721569E+08, -1.316485012775476E+08, 8.513650703716321E+07,
2460371.500000000, A.D. 2024-Mar-02 00:00:00.0000, -1.614667003637845E+08, -1.444758061364152E+08, 8.672414064567889E+07,
2460378.500000000, A.D. 2024-Mar-09 00:00:00.0000, -1.482166255027061E+08, -1.567517782771974E+08, 8.798084504912184E+07,
2460385.500000000, A.D. 2024-Mar-16 00:00:00.0000, -1.343981314272269E+08, -1.684265632774680E+08, 8.890010990027601E+07,
2460392.500000000, A.D. 2024-Mar-23 00:00:00.0000, -1.200649197468760E+08, -1.794563893456046E+08, 8.947891654156695E+07,
2460399.500000000, A.D. 2024-Mar-30 00:00:00.0000, -1.052755046097258E+08, -1.898045658021559E+08, 8.971779492880128E+07,
2460406.500000000, A.D. 2024-Apr-06 00:00:00.0000, -9.009175916843159E+07, -1.994421780941766E+08, 8.962073496183144E+07,
2460413.500000000, A.D. 2024-Apr-13 00:00:00.0000, -7.457738384928897E+07, -2.083484448294070E+08, 8.919496248106815E+07,
2460420.500000000, A.D. 2024-Apr-20 00:00:00.0000, -5.879639659541200E+07, -2.165107325046040E+08, 8.845060215386648E+07,
2460427.500000000, A.D. 2024-Apr-27 00:00:00.0000, -4.281173527228919E+07, -2.239242565087146E+08, 8.740025716395627E+07,
2460434.500000000, A.D. 2024-May-04 00:00:00.0000, -2.668404132491329E+07, -2.305915202556096E+08, 8.605853906411381E+07,
2460441.500000000, A.D. 2024-May-11 00:00:00.0000, -1.047066928180218E+07, -2.365215578816489E+08, 8.444158058908975E+07,
2460448.500000000, A.D. 2024-May-18 00:00:00.0000, 5.775058100462102E+06, -2.417290506378290E+08, 8.256656026632547E+07,
2460455.500000000, A.D. 2024-May-25 00:00:00.0000, 2.200435130814483E+07, -2.462333838442620E+08, 8.045126151804809E+07,
2460462.500000000, A.D. 2024-Jun-01 00:00:00.0000, 3.817323152068796E+07, -2.500577021963076E+08, 7.811368190754046E+07,
2460469.500000000, A.D. 2024-Jun-08 00:00:00.0000, 5.424261480860255E+07, -2.532280087911346E+08, 7.557170132581493E+07,
2460476.500000000, A.D. 2024-Jun-15 00:00:00.0000, 7.017823964342454E+07, -2.557723393618256E+08, 7.284281204498102E+07,
2460483.500000000, A.D. 2024-Jun-22 00:00:00.0000, 8.595047392501198E+07, -2.577200300844630E+08, 6.994390917099807E+07,
2460490.500000000, A.D. 2024-Jun-29 00:00:00.0000, 1.015340343432191E+08, -2.591010897238806E+08, 6.689113672248857E+07,
2460497.500000000, A.D. 2024-Jul-06 00:00:00.0000, 1.169076513451463E+08, -2.599456793104985E+08, 6.369978219620722E+07,
2460504.500000000, A.D. 2024-Jul-13 00:00:00.0000, 1.320537070053472E+08, -2.602836914170935E+08, 6.038421215179164E+07,
2460511.500000000, A.D. 2024-Jul-20 00:00:00.0000, 1.469578637198043E+08, -2.601444190745341E+08, 5.695784152079409E+07,
2460518.500000000, A.D. 2024-Jul-27 00:00:00.0000, 1.616086979008737E+08, -2.595563044930706E+08, 5.343312951601408E+07,
2460525.500000000, A.D. 2024-Aug-03 00:00:00.0000, 1.759973493663203E+08, -2.585467564916712E+08, 4.982159574868432E+07,
2460532.500000000, A.D. 2024-Aug-10 00:00:00.0000, 1.901171933684163E+08, -2.571420253921256E+08, 4.613385110662563E+07,
2460539.500000000, A.D. 2024-Aug-17 00:00:00.0000, 2.039635392207786E+08, -2.553671249026111E+08, 4.237963888357884E+07,
2460546.500000000, A.D. 2024-Aug-24 00:00:00.0000, 2.175333572928214E+08, -2.532457916629926E+08, 3.856788251779142E+07,
2460553.500000000, A.D. 2024-Aug-31 00:00:00.0000, 2.308250346641921E+08, -2.508004743920504E+08, 3.470673706459499E+07,
2460560.500000000, A.D. 2024-Sep-07 00:00:00.0000, 2.438381589083049E+08, -2.480523456238532E+08, 3.080364219130215E+07,
2460567.500000000, A.D. 2024-Sep-14 00:00:00.0000, 2.565733285021178E+08, -2.450213293164067E+08, 2.686537513998427E+07,
2460574.500000000, A.D. 2024-Sep-21 00:00:00.0000, 2.690319858395934E+08, -2.417261392478081E+08, 2.289810270455453E+07,
2460581.500000000, A.D. 2024-Sep-28 00:00:00.0000, 2.812162701735038E+08, -2.381843276682844E+08, 1.890743119125018E+07,
2460588.500000000, A.D. 2024-Oct-05 00:00:00.0000, 2.931288919258238E+08, -2.344123412283315E+08, 1.489845349749470E+07,
2460595.500000000, A.D. 2024-Oct-12 00:00:00.0000, 3.047730258352488E+08, -2.304255788841993E+08, 1.087579327420306E+07,
2460602.500000000, A.D. 2024-Oct-19 00:00:00.0000, 3.161522191376008E+08, -2.262384502760889E+08, 6.843646159669071E+06,
2460609.500000000, A.D. 2024-Oct-26 00:00:00.0000, 3.272703128457560E+08, -2.218644340442836E+08, 2.805817989347115E+06,
2460616.500000000, A.D. 2024-Nov-02 00:00:00.0000, 3.381313746553131E+08, -2.173161352472838E+08, -1.234240004128069E+06,
2460623.500000000, A.D. 2024-Nov-09 00:00:00.0000, 3.487396420160255E+08, -2.126053411553825E+08, -5.273398900623724E+06,
2460630.500000000, A.D. 2024-Nov-16 00:00:00.0000, 3.590994740098860E+08, -2.077430749311837E+08, -9.308822569630548E+06,
2460637.500000000, A.D. 2024-Nov-23 00:00:00.0000, 3.692153108617351E+08, -2.027396469275065E+08, -1.333794075602637E+07,
2460644.500000000, A.D. 2024-Nov-30 00:00:00.0000, 3.790916402226000E+08, -1.976047034561902E+08, -1.735842461839254E+07,
2460651.500000000, A.D. 2024-Dec-07 00:00:00.0000, 3.887329697169150E+08, -1.923472725185057E+08, -2.136816454194118E+07,
2460658.500000000, A.D. 2024-Dec-14 00:00:00.0000, 3.981438042609723E+08, -1.869758052619407E+08, -2.536524988343783E+07,
2460665.500000000, A.D. 2024-Dec-21 00:00:00.0000, 4.073286251358499E+08, -1.814982144492629E+08, -2.934795036412346E+07,
2460672.500000000, A.D. 2024-Dec-28 00:00:00.0000, 4.162918721797971E+08, -1.759219129880249E+08, -3.331469937003008E+07,
2460679.500000000, A.D. 2025-Jan-04 00:00:00.0000, 4.250379311733565E+08, -1.702538502479765E+08, -3.726407904933443E+07,
2460686.500000000, A.D. 2025-Jan-11 00:00:00.0000, 4.335711241475103E+08, -1.645005446270673E+08, -4.119480676016282E+07,
2460693.500000000, A.D. 2025-Jan-18 00:00:00.0000, 4.418957013136023E+08, -1.586681134160084E+08, -4.510572272685390E+07,
2460700.500000000, A.D. 2025-Jan-25 00:00:00.0000, 4.500158345291150E+08, -1.527623005718549E+08, -4.899577884361816E+07,
2460707.500000000, A.D. 2025-Feb-01 00:00:00.0000, 4.579356122069349E+08, -1.467885025675282E+08, -5.286402853370295E+07,
2460714.500000000, A.D. 2025-Feb-08 00:00:00.0000, 4.656590354856546E+08, -1.407517924325967E+08, -5.670961756604043E+07,
2460721.500000000, A.D. 2025-Feb-15 00:00:00.0000, 4.731900154840134E+08, -1.346569421366142E+08, -6.053177574125893E+07,
$$EOE